STARLINK-2645           
1 48444U 21040S   26068.51397280  .00006792  00000+0  24116-3 0  9998
2 48444  53.1606 178.9451 0001080  69.1744 290.9373 15.30211266266657
EXO-0                   
1 59175U 23174DK  26068.71046781  .00011582  00000+0  36716-3 0  9992
2 59175  97.3864 148.9039 0009878 157.1125 203.0559 15.32821991129797
