[{"OBJECT_NAME":"STARLINK-2645","OBJECT_ID":"2021-040S","EPOCH":"2026-03-09T12:20:07.249920","MEAN_MOTION":15.30211266,"ECCENTRICITY":0.00010807,"INCLINATION":53.1606,"RA_OF_ASC_NODE":178.9451,"ARG_OF_PERICENTER":69.1744,"MEAN_ANOMALY":290.9373,"EPHEMERIS_TYPE":0,"CLASSIFICATION_TYPE":"U","NORAD_CAT_ID":48444,"ELEMENT_SET_NO":999,"REV_AT_EPOCH":26665,"BSTAR":0.00024115912,"MEAN_MOTION_DOT":6.792e-5,"MEAN_MOTION_DDOT":0},{"OBJECT_NAME":"EXO-0","OBJECT_ID":"2023-174DK","EPOCH":"2026-03-09T17:03:04.419648","MEAN_MOTION":15.32821991,"ECCENTRICITY":0.00098779,"INCLINATION":97.3864,"RA_OF_ASC_NODE":148.9039,"ARG_OF_PERICENTER":157.1125,"MEAN_ANOMALY":203.0559,"EPHEMERIS_TYPE":0,"CLASSIFICATION_TYPE":"U","NORAD_CAT_ID":59175,"ELEMENT_SET_NO":999,"REV_AT_EPOCH":12979,"BSTAR":0.00036716083,"MEAN_MOTION_DOT":0.00011582,"MEAN_MOTION_DDOT":0}]
